[{"OBJECT_NAME":"YAOGAN-12","OBJECT_ID":"2011-066B","EPOCH":"2026-03-09T23:39:51.505056","MEAN_MOTION":15.25407482,"ECCENTRICITY":0.00091131,"INCLINATION":97.1283,"RA_OF_ASC_NODE":112.2403,"ARG_OF_PERICENTER":209.5466,"MEAN_ANOMALY":150.5259,"EPHEMERIS_TYPE":0,"CLASSIFICATION_TYPE":"U","NORAD_CAT_ID":37875,"ELEMENT_SET_NO":999,"REV_AT_EPOCH":79691,"BSTAR":0.0002218082,"MEAN_MOTION_DOT":5.54e-5,"MEAN_MOTION_DDOT":0},{"OBJECT_NAME":"STARLINK-36036","OBJECT_ID":"2025-270W","EPOCH":"2026-03-09T00:05:29.727456","MEAN_MOTION":15.2758616,"ECCENTRICITY":8.05e-5,"INCLINATION":43.0011,"RA_OF_ASC_NODE":59.8195,"ARG_OF_PERICENTER":74.7687,"MEAN_ANOMALY":285.3254,"EPHEMERIS_TYPE":0,"CLASSIFICATION_TYPE":"U","NORAD_CAT_ID":66608,"ELEMENT_SET_NO":999,"REV_AT_EPOCH":1744,"BSTAR":0.00096854664,"MEAN_MOTION_DOT":0.00026491,"MEAN_MOTION_DDOT":0}]
